HAWK-11C                
1 62381U 24247E   26068.51221537  .00009223  00000+0  33290-3 0  9992
2 62381  45.0045 114.8762 0005900 329.7040  30.3502 15.28848020 67743
STARLINK-35434          
1 66246U 25245N   26068.87312064  .00024159  00000+0  82495-3 0  9996
2 66246  53.1567 283.1123 0000778  94.0216 266.0874 15.30207836 21075
